{"type": "FeatureCollection", "features": [ {"type": "Feature", "properties": {"norad_id": 66936, "name": "STARLINK-36160", "group": "last-30-days", "lat": 51.58539178380516, "lon": 112.1601407579481, "alt_km": 284.4166417813167, "timestamp": "2025-12-14T14:39:28.134790+00:00", "meta": {"OBJECT_NAME": "STARLINK-36160", "OBJECT_ID": "2025-286M", "EPOCH": "2025-12-13T20:00:03.000384", "MEAN_MOTION": 15.95682803, "ECCENTRICITY": 6.695e-05, "INCLINATION": 53.1573, "RA_OF_ASC_NODE": 45.1342, "ARG_OF_PERICENTER": 73.2871, "MEAN_ANOMALY": 219.6522, "EPHEMERIS_TYPE": 0, "CLASSIFICATION_TYPE": "U", "NORAD_CAT_ID": 66936, "ELEMENT_SET_NO": 999, "REV_AT_EPOCH": 216, "BSTAR": -0.0032494622, "MEAN_MOTION_DOT": -0.01339207, "MEAN_MOTION_DDOT": 0.00053960645}, "tle": {"line1": "1 66936U 25286M   25347.83336806 -.01339207  53961-3 -32495-2 0  9990", "line2": "2 66936  53.1573  45.1342 0000669  73.2871 219.6522 15.95682803  2167"}}, "geometry": {"type": "Point", "coordinates": [112.1601407579481, 51.58539178380516]}}, {"type": "Feature", "properties": {"norad_id": 66937, "name": "STARLINK-36165", "group": "last-30-days", "lat": 51.98393017583636, "lon": 114.72316762888552, "alt_km": 284.0108636164978, "timestamp": "2025-12-14T14:39:28.134802+00:00", "meta": {"OBJECT_NAME": "STARLINK-36165", "OBJECT_ID": "2025-286N", "EPOCH": "2025-12-13T20:00:03.000384", "MEAN_MOTION": 15.95753967, "ECCENTRICITY": 8.835e-05, "INCLINATION": 53.1573, "RA_OF_ASC_NODE": 45.1309, "ARG_OF_PERICENTER": 62.6749, "MEAN_ANOMALY": 231.6969, "EPHEMERIS_TYPE": 0, "CLASSIFICATION_TYPE": "U", "NORAD_CAT_ID": 66937, "ELEMENT_SET_NO": 999, "REV_AT_EPOCH": 216, "BSTAR": -0.0032375238, "MEAN_MOTION_DOT": -0.01339465, "MEAN_MOTION_DDOT": 0.00054018701}, "tle": {"line1": "1 66937U 25286N   25347.83336806 -.01339465  54019-3 -32375-2 0  9999", "line2": "2 66937  53.1573  45.1309 0000883  62.6749 231.6969 15.95753967  2164"}}, "geometry": {"type": "Point", "coordinates": [114.72316762888552, 51.98393017583636]}}, {"type": "Feature", "properties": {"norad_id": 66938, "name": "STARLINK-36155", "group": "last-30-days", "lat": 52.32746015619876, "lon": 117.34545336624882, "alt_km": 283.89673607589157, "timestamp": "2025-12-14T14:39:28.134812+00:00", "meta": {"OBJECT_NAME": "STARLINK-36155", "OBJECT_ID": "2025-286P", "EPOCH": "2025-12-13T20:00:03.000384", "MEAN_MOTION": 15.95826541, "ECCENTRICITY": 6.799e-05, "INCLINATION": 53.1571, "RA_OF_ASC_NODE": 45.1278, "ARG_OF_PERICENTER": 68.5704, "MEAN_ANOMALY": 227.2422, "EPHEMERIS_TYPE": 0, "CLASSIFICATION_TYPE": "U", "NORAD_CAT_ID": 66938, "ELEMENT_SET_NO": 999, "REV_AT_EPOCH": 216, "BSTAR": -0.0032229568, "MEAN_MOTION_DOT": -0.01338687, "MEAN_MOTION_DDOT": 0.00054001468}, "tle": {"line1": "1 66938U 25286P   25347.83336806 -.01338687  54001-3 -32230-2 0  9996", "line2": "2 66938  53.1571  45.1278 0000679  68.5704 227.2422 15.95826541  2161"}}, "geometry": {"type": "Point", "coordinates": [117.34545336624882, 52.32746015619876]}}, {"type": "Feature", "properties": {"norad_id": 66939, "name": "STARLINK-36154", "group": "last-30-days", "lat": 52.867782624760935, "lon": 123.14845212471424, "alt_km": 283.3621378159987, "timestamp": "2025-12-14T14:39:28.134823+00:00", "meta": {"OBJECT_NAME": "STARLINK-36154", "OBJECT_ID": "2025-286Q", "EPOCH": "2025-12-13T20:00:03.000384", "MEAN_MOTION": 15.9599778, "ECCENTRICITY": 7.872e-05, "INCLINATION": 53.1571, "RA_OF_ASC_NODE": 45.1213, "ARG_OF_PERICENTER": 65.3549, "MEAN_ANOMALY": 233.5854, "EPHEMERIS_TYPE": 0, "CLASSIFICATION_TYPE": "U", "NORAD_CAT_ID": 66939, "ELEMENT_SET_NO": 999, "REV_AT_EPOCH": 216, "BSTAR": -0.0032467792, "MEAN_MOTION_DOT": -0.01360923, "MEAN_MOTION_DDOT": 0.00055745914}, "tle": {"line1": "1 66939U 25286Q   25347.83336806 -.01360923  55746-3 -32468-2 0  9995", "line2": "2 66939  53.1571  45.1213 0000787  65.3549 233.5854 15.95997780  2166"}}, "geometry": {"type": "Point", "coordinates": [123.14845212471424, 52.867782624760935]}}, {"type": "Feature", "properties": {"norad_id": 66940, "name": "STARLINK-36121", "group": "last-30-days", "lat": 53.01572059904956, "lon": 125.77508617296186, "alt_km": 283.21787431860866, "timestamp": "2025-12-14T14:39:28.134835+00:00", "meta": {"OBJECT_NAME": "STARLINK-36121", "OBJECT_ID": "2025-286R", "EPOCH": "2025-12-13T20:00:03.000384", "MEAN_MOTION": 15.96063023, "ECCENTRICITY": 6.469e-05, "INCLINATION": 53.1569, "RA_OF_ASC_NODE": 45.1183, "ARG_OF_PERICENTER": 62.0194, "MEAN_ANOMALY": 238.3025, "EPHEMERIS_TYPE": 0, "CLASSIFICATION_TYPE": "U", "NORAD_CAT_ID": 66940, "ELEMENT_SET_NO": 999, "REV_AT_EPOCH": 216, "BSTAR": -0.0032070212, "MEAN_MOTION_DOT": -0.01349172, "MEAN_MOTION_DDOT": 0.00054907599}, "tle": {"line1": "1 66940U 25286R   25347.83336806 -.01349172  54908-3 -32070-2 0  9998", "line2": "2 66940  53.1569  45.1183 0000646  62.0194 238.3025 15.96063023  2163"}}, "geometry": {"type": "Point", "coordinates": [125.77508617296186, 53.01572059904956]}}, {"type": "Feature", "properties": {"norad_id": 66941, "name": "STARLINK-36088", "group": "last-30-days", "lat": 52.65095982108526, "lon": 120.42372601638972, "alt_km": 283.5881665172574, "timestamp": "2025-12-14T14:39:28.134850+00:00", "meta": {"OBJECT_NAME": "STARLINK-36088", "OBJECT_ID": "2025-286S", "EPOCH": "2025-12-13T20:00:03.000384", "MEAN_MOTION": 15.95922396, "ECCENTRICITY": 7.935e-05, "INCLINATION": 53.1569, "RA_OF_ASC_NODE": 45.1241, "ARG_OF_PERICENTER": 66.9692, "MEAN_ANOMALY": 230.5179, "EPHEMERIS_TYPE": 0, "CLASSIFICATION_TYPE": "U", "NORAD_CAT_ID": 66941, "ELEMENT_SET_NO": 999, "REV_AT_EPOCH": 216, "BSTAR": -0.0032567479, "MEAN_MOTION_DOT": -0.01359536, "MEAN_MOTION_DDOT": 0.00055599452}, "tle": {"line1": "1 66941U 25286S   25347.83336806 -.01359536  55599-3 -32567-2 0  9992", "line2": "2 66941  53.1569  45.1241 0000793  66.9692 230.5179 15.95922396  2168"}}, "geometry": {"type": "Point", "coordinates": [120.42372601638972, 52.65095982108526]}}, {"type": "Feature", "properties": {"norad_id": 66942, "name": "STARLINK-36100", "group": "last-30-days", "lat": 53.10801380403167, "lon": 128.53379159087123, "alt_km": 283.06253024558373, "timestamp": "2025-12-14T14:39:28.134860+00:00", "meta": {"OBJECT_NAME": "STARLINK-36100", "OBJECT_ID": "2025-286T", "EPOCH": "2025-12-13T20:00:03.000384", "MEAN_MOTION": 15.96138635, "ECCENTRICITY": 5.5e-05, "INCLINATION": 53.1568, "RA_OF_ASC_NODE": 45.1153, "ARG_OF_PERICENTER": 62.8007, "MEAN_ANOMALY": 238.9712, "EPHEMERIS_TYPE": 0, "CLASSIFICATION_TYPE": "U", "NORAD_CAT_ID": 66942, "ELEMENT_SET_NO": 999, "REV_AT_EPOCH": 209, "BSTAR": -0.0031962175, "MEAN_MOTION_DOT": -0.01350155, "MEAN_MOTION_DDOT": 0.00055023208}, "tle": {"line1": "1 66942U 25286T   25347.83336806 -.01350155  55023-3 -31962-2 0  9991", "line2": "2 66942  53.1568  45.1153 0000550  62.8007 238.9712 15.96138635  2099"}}, "geometry": {"type": "Point", "coordinates": [128.53379159087123, 53.10801380403167]}}, {"type": "Feature", "properties": {"norad_id": 66943, "name": "STARLINK-36109", "group": "last-30-days", "lat": 53.13441377463161, "lon": 131.7989203593003, "alt_km": 282.7936449811077, "timestamp": "2025-12-14T14:39:28.134870+00:00", "meta": {"OBJECT_NAME": "STARLINK-36109", "OBJECT_ID": "2025-286U", "EPOCH": "2025-12-13T20:00:03.000384", "MEAN_MOTION": 15.9623233, "ECCENTRICITY": 6.091e-05, "INCLINATION": 53.1567, "RA_OF_ASC_NODE": 45.1117, "ARG_OF_PERICENTER": 73.9939, "MEAN_ANOMALY": 229.4997, "EPHEMERIS_TYPE": 0, "CLASSIFICATION_TYPE": "U", "NORAD_CAT_ID": 66943, "ELEMENT_SET_NO": 999, "REV_AT_EPOCH": 209, "BSTAR": -0.0032081023, "MEAN_MOTION_DOT": -0.01361973, "MEAN_MOTION_DDOT": 0.00055958666}, "tle": {"line1": "1 66943U 25286U   25347.83336806 -.01361973  55959-3 -32081-2 0  9993", "line2": "2 66943  53.1567  45.1117 0000609  73.9939 229.4997 15.96232330  2098"}}, "geometry": {"type": "Point", "coordinates": [131.7989203593003, 53.13441377463161]}}, {"type": "Feature", "properties": {"norad_id": 66944, "name": "STARLINK-36112", "group": "last-30-days", "lat": 53.091750782169406, "lon": 134.38738265820746, "alt_km": 282.4461189935537, "timestamp": "2025-12-14T14:39:28.134883+00:00", "meta": {"OBJECT_NAME": "STARLINK-36112", "OBJECT_ID": "2025-286V", "EPOCH": "2025-12-13T20:00:03.000384", "MEAN_MOTION": 15.96307465, "ECCENTRICITY": 9.6e-05, "INCLINATION": 53.1567, "RA_OF_ASC_NODE": 45.1087, "ARG_OF_PERICENTER": 63.3495, "MEAN_ANOMALY": 241.5157, "EPHEMERIS_TYPE": 0, "CLASSIFICATION_TYPE": "U", "NORAD_CAT_ID": 66944, "ELEMENT_SET_NO": 999, "REV_AT_EPOCH": 216, "BSTAR": -0.0032324234, "MEAN_MOTION_DOT": -0.01377778, "MEAN_MOTION_DDOT": 0.00057193366}, "tle": {"line1": "1 66944U 25286V   25347.83336806 -.01377778  57193-3 -32324-2 0  9996", "line2": "2 66944  53.1567  45.1087 0000960  63.3495 241.5157 15.96307465  2168"}}, "geometry": {"type": "Point", "coordinates": [134.38738265820746, 53.091750782169406]}}, {"type": "Feature", "properties": {"norad_id": 66945, "name": "STARLINK-36110", "group": "last-30-days", "lat": 52.96120726023948, "lon": 137.57755285135232, "alt_km": 282.3069706532742, "timestamp": "2025-12-14T14:39:28.134893+00:00", "meta": {"OBJECT_NAME": "STARLINK-36110", "OBJECT_ID": "2025-286W", "EPOCH": "2025-12-13T20:00:03.000384", "MEAN_MOTION": 15.96397183, "ECCENTRICITY": 8.481e-05, "INCLINATION": 53.1566, "RA_OF_ASC_NODE": 45.1051, "ARG_OF_PERICENTER": 63.1671, "MEAN_ANOMALY": 243.3763, "EPHEMERIS_TYPE": 0, "CLASSIFICATION_TYPE": "U", "NORAD_CAT_ID": 66945, "ELEMENT_SET_NO": 999, "REV_AT_EPOCH": 216, "BSTAR": -0.0032249566, "MEAN_MOTION_DOT": -0.01381291, "MEAN_MOTION_DDOT": 0.00057512794}, "tle": {"line1": "1 66945U 25286W   25347.83336806 -.01381291  57513-3 -32250-2 0  9996", "line2": "2 66945  53.1566  45.1051 0000848  63.1671 243.3763 15.96397183  2167"}}, "geometry": {"type": "Point", "coordinates": [137.57755285135232, 52.96120726023948]}}]}